{
  "norad_id": 64419,
  "name": "STARLINK-34512",
  "history": [
    {
      "epoch": "2026-03-28T21:49:03.733536Z",
      "apogee_km": 573.8819783340969,
      "perigee_km": 570.1892126306666,
      "latitude_deg": 7.5435256630284e-05,
      "longitude_deg": -127.49548628146435,
      "height_km": 574.7006043356149,
      "semi_major_axis_km": 6950.172595482381,
      "eccentricity": 0.00026566,
      "inclination_deg": 70.0022,
      "raan_deg": 26.0928,
      "arg_perigee_deg": 262.6023,
      "mean_anomaly_deg": 97.4835,
      "mean_motion_rev_day": 14.98336563
    },
    {
      "epoch": "2026-03-29T04:13:36.165792Z",
      "apogee_km": 573.9781876660318,
      "perigee_km": 570.1291720675208,
      "latitude_deg": -7.187953713442469e-06,
      "longitude_deg": 135.4339408227538,
      "height_km": 574.5682089804376,
      "semi_major_axis_km": 6950.190679866776,
      "eccentricity": 0.0002769,
      "inclination_deg": 70.0024,
      "raan_deg": 25.4206,
      "arg_perigee_deg": 267.4053,
      "mean_anomaly_deg": 92.6789,
      "mean_motion_rev_day": 14.98330715
    },
    {
      "epoch": "2026-03-30T04:15:37.551744Z",
      "apogee_km": 573.9072375917676,
      "perigee_km": 570.1874989178787,
      "latitude_deg": 9.050197463526682e-06,
      "longitude_deg": 131.41624278484173,
      "height_km": 574.5797595733143,
      "semi_major_axis_km": 6950.184368254823,
      "eccentricity": 0.0002676,
      "inclination_deg": 70.0026,
      "raan_deg": 22.8957,
      "arg_perigee_deg": 266.7616,
      "mean_anomaly_deg": 93.3237,
      "mean_motion_rev_day": 14.98332756
    },
    {
      "epoch": "2026-03-30T05:51:45.621792Z",
      "apogee_km": 573.8846425622824,
      "perigee_km": 570.2202246852994,
      "latitude_deg": 1.4667912301278391e-05,
      "longitude_deg": 107.14871796755226,
      "height_km": 574.6180230455042,
      "semi_major_axis_km": 6950.189433623791,
      "eccentricity": 0.00026362,
      "inclination_deg": 70.0027,
      "raan_deg": 22.7276,
      "arg_perigee_deg": 265.6711,
      "mean_anomaly_deg": 94.4147,
      "mean_motion_rev_day": 14.98331118
    },
    {
      "epoch": "2026-03-30T12:16:17.889888Z",
      "apogee_km": 573.8806313955401,
      "perigee_km": 570.2060710438509,
      "latitude_deg": 2.8471354838664344e-05,
      "longitude_deg": 10.077566099552332,
      "height_km": 574.5821122138703,
      "semi_major_axis_km": 6950.180351219696,
      "eccentricity": 0.00026435,
      "inclination_deg": 70.0026,
      "raan_deg": 22.0541,
      "arg_perigee_deg": 266.5217,
      "mean_anomaly_deg": 93.564,
      "mean_motion_rev_day": 14.98334055
    },
    {
      "epoch": "2026-03-30T21:53:06.337824Z",
      "apogee_km": 573.8545878836121,
      "perigee_km": 570.238268442271,
      "latitude_deg": -4.090969695759211e-05,
      "longitude_deg": -135.52893562957868,
      "height_km": 574.5772912037094,
      "semi_major_axis_km": 6950.183428162941,
      "eccentricity": 0.00026016,
      "inclination_deg": 70.003,
      "raan_deg": 21.0443,
      "arg_perigee_deg": 266.716,
      "mean_anomaly_deg": 93.3701,
      "mean_motion_rev_day": 14.9833306
    },
    {
      "epoch": "2026-03-31T12:18:18.887040Z",
      "apogee_km": 573.7630928058343,
      "perigee_km": 570.3187236380772,
      "latitude_deg": -5.570163159426626e-05,
      "longitude_deg": 6.061856816751878,
      "height_km": 574.5669274089064,
      "semi_major_axis_km": 6950.1779082219555,
      "eccentricity": 0.00024779,
      "inclination_deg": 70.0034,
      "raan_deg": 19.5296,
      "arg_perigee_deg": 266.71,
      "mean_anomaly_deg": 93.3775,
      "mean_motion_rev_day": 14.98334845
    },
    {
      "epoch": "2026-04-01T12:20:19.948992Z",
      "apogee_km": 573.7064028344084,
      "perigee_km": 570.3758774696471,
      "latitude_deg": 3.0349979534432977e-05,
      "longitude_deg": 2.046138435030235,
      "height_km": 574.528024914757,
      "semi_major_axis_km": 6950.1781401520275,
      "eccentricity": 0.0002396,
      "inclination_deg": 70.0042,
      "raan_deg": 17.0053,
      "arg_perigee_deg": 267.944,
      "mean_anomaly_deg": 92.1445,
      "mean_motion_rev_day": 14.9833477
    },
    {
      "epoch": "2026-04-02T12:22:19.197408Z",
      "apogee_km": 573.5854207626735,
      "perigee_km": 570.1387772095031,
      "latitude_deg": 2.316959536033723e-06,
      "longitude_deg": -1.963544505049131,
      "height_km": 574.3149109435333,
      "semi_major_axis_km": 6949.999098986088,
      "eccentricity": 0.00024796,
      "inclination_deg": 70.0042,
      "raan_deg": 14.4795,
      "arg_perigee_deg": 269.1515,
      "mean_anomaly_deg": 90.936,
      "mean_motion_rev_day": 14.98392669
    }
  ]
}